#aV2019 12 18  0  0  0.00000000     288 DD+AD WGS84 FIT  NGA
## 2084 259200.00000000   300.00000000 58835 0.0000000000000
+   32     1  2  3  4  5  6  7  8  9 10 11 12 13 14 15 16 17
+         18 19 20 21 22 23 24 25 26 27 28 29 30 31 32  0  0
+          0  0  0  0  0  0  0  0  0  0  0  0  0  0  0  0  0
+          0  0  0  0  0  0  0  0  0  0  0  0  0  0  0  0  0
+          0  0  0  0  0  0  0  0  0  0  0  0  0  0  0  0  0
++         2  2  2  2  2  2  2  2  2  2  2  2  2  2  2  2  2
++         2  2  2  2  2  2  2  2  2  2  2  2  2  2  2  0  0
++         0  0  0  0  0  0  0  0  0  0  0  0  0  0  0  0  0
++         0  0  0  0  0  0  0  0  0  0  0  0  0  0  0  0  0
++         0  0  0  0  0  0  0  0  0  0  0  0  0  0  0  0  0
%c cc cc ccc ccc cccc cccc cccc cccc ccccc ccccc ccccc ccccc
%c cc cc ccc ccc cccc cccc cccc cccc ccccc ccccc ccccc ccccc
%f  0.0000000  0.000000000  0.00000000000  0.000000000000000
%f  0.0000000  0.000000000  0.00000000000  0.000000000000000
%i    0    0    0    0      0      0      0      0         0
%i    0    0    0    0      0      0      0      0         0
/*      NGA, ST. LOUIS,MO.                                  
/*   EPHEMERIS COMPUTED FROM 2 DAYS OF DATA                 
/*   EPOCHA v5 SMOOTHER                                     
/*   G1762 IERS2010 SATAF SATAPC                            
*  2019 12 18  2 15  0.00000000
P  1  14150.414095 -22239.578170  -1314.610571   -233.167597                    
V  1   2892.531747    240.678367  32298.816513     -0.123188                    
P  2 -18290.221105   7641.622494 -16992.551203   -368.424949                    
V  2   9757.872263 -20783.562636 -19256.280834     -0.073993                    
P  3  10545.282108 -13426.437027 -20382.234495    -54.884640                    
V  3  25626.238773   2819.416193  11521.558656     -0.068622                    
P  4   4264.895922 -19825.596092 -17138.362247    -21.977132                    
V  4  10541.061910  19145.492863 -19533.677850     -0.047759                    
P  5 -25804.315294   3097.335113   5815.655275     -4.840361                    
V  5  -7405.393570  -3172.472284 -30260.948805     -0.005080                    
P  6 -13427.253707  -6498.833426 -21926.939526   -156.664449                    
V  6  15432.455314 -23253.454144  -2523.763628     -0.110427                    
P  7   1234.022672 -21343.071037  15731.787168   -172.304290                    
V  7  13113.610399 -14850.988445 -22038.248292     -0.082466                    
P  8  10883.668291 -11150.355235  21513.824045    -17.115753                    
V  8  12816.353736  24045.554571   6210.986773     -0.012988                    
P  9  -5181.871008 -24451.935802  -9021.673464   -110.753850                    
V  9   7655.572939   8897.453266 -28696.946777     -0.093265                    
P 10  18912.664614  11592.741395  14842.540209   -176.200630                    
V 10 -18710.320203    561.731319  23285.689022     -0.141676                    
P 11   8101.291324 -24609.457052   6044.513438   -416.276573                    
V 11   2831.623596   8765.573968  29135.936852      0.110213                    
P 12 -15525.207118  10619.356401 -18902.652791    172.075654                    
V 12 -23163.692283  -4426.378741  16897.392610     -0.040385                    
P 13 -15106.787836   1902.430166  21644.372539    -25.963960                    
V 13  -8685.108889 -26358.399838  -3649.455046      0.024458                    
P 14  16952.793224  12261.453273 -16141.505973    -44.202905                    
V 14   5937.933001  20268.950892  21029.175951      0.022264                    
P 15 -10031.613749  13002.606864  20512.010110   -264.936376                    
V 15 -15089.881799 -22338.653559   7067.500955      0.026557                    
P 16  26294.987480    850.903958   4911.087379   -104.125036                    
V 16   6034.965038   2770.423404 -31099.517191     -0.038994                    
P 17 -14321.645792 -20888.088734  -7685.086039    182.608215                    
V 17  -2162.723550 -10266.845724  30194.127258      0.067345                    
P 18  16939.849631 -19092.457274   6663.541093    107.389494                    
V 18  -2163.130171   9373.925221  30183.407250      0.024833                    
P 19 -16204.173800 -15012.136446 -15030.183535   -224.871117                    
V 19  -4981.761891 -17913.970310  23739.564979      0.051561                    
P 20   9068.880833  14520.595357  20252.055292    527.671995                    
V 20 -25890.006677   2569.848533   9504.855135      0.000515                    
P 21   2702.713425  20377.970724  17727.536029    -69.296437                    
V 21 -11891.540532  17283.155554 -18700.355447      0.057332                    
P 22  18069.396988 -11630.147363 -15325.122014   -778.063868                    
V 22  20010.691568   2559.949742  21453.629489     -0.019048                    
P 23   2356.668579 -20676.036958 -15933.823153   -148.891852                    
V 23  11953.144429  17555.929282 -20946.921779      0.023544                    
P 24 -14245.028995  22135.845427   1250.191842     -6.355676                    
V 24  -2396.624969  -3549.594780  31409.107605     -0.004635                    
P 25   -181.361707  15182.538793 -22015.710522    -17.265787                    
V 25 -27329.334220  -2006.094461   -909.147878      0.002459                    
P 26  25806.991242   4582.701869  -4965.288491    107.963360                    
V 26  -6363.015379   2679.417101 -30518.593911      0.081487                    
P 27  16335.845539   1452.337628  20846.920108   -153.674790                    
V 27  11170.653487  24156.772866 -10072.255107     -0.115980                    
P 28 -18420.717468 -12929.437020  14601.922098    750.078567                    
V 28  17551.536762   1250.445639  24383.814968     -0.018643                    
P 29   3079.394281  24549.633578  -9657.851070     15.772306                    
V 29  -6295.795745 -10606.066308 -29075.271448     -0.098999                    
P 30  -8333.663831 -14308.903109  20761.940563   -108.366280                    
V 30  16369.164157 -20750.315895  -7936.022078     -0.086507                    
P 31  15432.384847   4136.794327 -21309.062358    -10.516568                    
V 31 -15361.269161  22122.212515  -6384.178200     -0.025031                    
P 32  16138.062516  19510.890520  -8183.029930    158.647135                    
V 32   2270.745991  10531.724226  29240.247645      0.112992                    
EOF
